C/2022 E2 (ATLAS),h,09/14.3557/2024,137.1404,125.3975,41.7922,1.000801,3.668012,2000,5.0,4.0
# From MPC194179
C/2022 E3 (ZTF),h,01/12.2778/2023,109.1812,302.4876,145.8805,1.000052,1.117290,2000,7.5,4.0
# From MPC194179
C/2022 F1 (ATLAS),e,57.9804,350.6365,278.3959,51173,0.0000001,0.99988312,0.0000,08/06.2734/2022,2000,g  7.0,4.0
# From MPC194179
C/2022 H1 (PANSTARRS),e,49.8665,6.3011,246.2918,874.9330,0.0000381,0.99121285,0.0000,01/18.4939/2024,2000,g  6.0,4.0
# From MPC194180
C/2022 JK5 (PANSTARRS),e,16.8292,59.6533,247.3445,43.38520,0.0034490,0.93787769,4.0028,07/02.0/2026,2000,g 11.0,4.0
# From MPC194180
C/2022 L2 (ATLAS),h,03/11.8775/2024,129.3115,39.2501,199.9241,1.000217,2.694577,2000,6.5,4.0
# From MPEC 2026-L50
C/2022 N2 (PANSTARRS),h,08/01.1680/2025,5.5034,319.7279,75.4729,1.004179,3.826612,2000,6.0,4.0
# From MPC194180
C/2022 O1 (ATLAS),h,02/14.5903/2022,71.0781,49.9014,268.9253,1.000236,7.435078,2000,6.0,4.0
# From MPC194181
P/2022 P2 (ZTF),e,12.4414,291.1691,137.8182,4.493818,0.1034620,0.55754836,150.2504,07/02.0/2026,2000,g 12.5,4.0
# From MPEC 2026-M30
C/2022 QE78 (ATLAS),e,36.6584,119.8919,0.6587,1318,0.0000206,0.99584554,0.0000,09/12.1370/2025,2000,g  5.0,4.0
# From MPC194181
P/2022 R1 (PANSTARRS),e,7.3939,175.5669,221.5632,7.111281,0.0519735,0.49949145,52.1800,07/02.0/2026,2000,g 11.5,4.0
# From MPC194181
C/2022 R3 (Leonard),h,03/05.9031/2023,43.0561,8.2703,72.9650,1.001368,5.135456,2000,9.0,4.0
# From MPC194181
P/2022 R5 (PANSTARRS),e,15.2923,115.0396,240.4466,3.071136,0.1831283,0.19445238,274.4919,07/02.0/2026,2000,g 16.0,4.0
# From MPEC 2026-M30
C/2022 R6 (PANSTARRS),h,08/27.3506/2025,57.0400,150.7738,320.0201,1.004863,6.566751,2000,5.0,4.0
# From MPC194182
P/2022 S1 (PANSTARRS),e,34.5618,136.0843,262.8537,6.407743,0.0607640,0.50710610,85.9083,07/02.0/2026,2000,g 13.0,4.0
# From MPC194182
C/2022 S4 (Lemmon),e,101.1932,220.1781,268.5544,1407,0.0000187,0.99803754,0.0000,07/18.7784/2024,2000,g  8.0,4.0
# From MPC194182
C/2022 T1 (Lemmon),h,02/17.5915/2024,22.5367,236.8960,324.3059,1.000746,3.443409,2000,9.0,4.0
# From MPC194182
C/2022 U1 (Leonard),h,03/26.2302/2024,128.1373,72.5342,78.6149,1.000702,4.201535,2000,8.5,4.0
# From MPC194182
C/2022 U3 (Bok),e,33.6613,272.7875,189.1614,8809,0.0000012,0.99945187,0.0000,07/28.6812/2024,2000,g  7.5,4.0
# From MPC194182
C/2022 U4 (Bok),e,52.0600,132.9183,88.9611,3328,0.0000051,0.99913006,0.0000,08/03.8139/2023,2000,g 10.5,4.0
# From MPC194182
C/2022 V2 (Lemmon),e,98.9109,332.8277,168.9891,36.69041,0.0044348,0.94368177,4.3161,07/02.0/2026,2000,g 12.0,4.0
# From MPC194182
P/2022 W1 (Rankin),e,13.4598,38.8453,17.9700,6.977797,0.0534720,0.51603842,74.0752,07/02.0/2026,2000,g 12.5,4.0
# From MPC194183
C/2022 W2 (ATLAS),e,63.4897,320.4195,123.3638,339.8725,0.0001573,0.99079588,0.0000,03/08.5135/2023,2000,g 11.5,4.0
# From MPEC 2026-KB8
C/2023 A3 (Tsuchinshan-ATLAS),h,09/27.8051/2024,139.1028,21.6522,308.5695,1.000174,0.391436,2000,6.5,3.2
# From MPEC 2026-J11
P/2023 B1 (PANSTARRS),e,14.5859,78.5675,82.0121,7.072885,0.0523973,0.13150668,60.2833,07/02.0/2026,2000,g  5.5,4.0
# From MPC194183
P/2023 B3 (PANSTARRS),e,9.1557,153.9676,240.3710,4.552974,0.1014522,0.12172826,215.7771,07/02.0/2026,2000,g 10.5,4.0
# From MPEC 2026-M30
C/2023 C2 (ATLAS),e,48.3226,301.0052,357.4129,1585,0.0000156,0.99850633,0.0000,11/16.6547/2024,2000,g  7.0,4.0
# From MPEC 2026-L50
C/2023 F3 (ATLAS),h,02/02.8739/2025,145.9621,109.4694,265.5763,1.002876,5.192374,2000,6.0,4.0
# From MPC191587
C/2023 H1 (PANSTARRS),e,21.7821,292.6446,333.7225,746.7937,0.0000483,0.99404593,0.0000,11/28.4736/2024,2000,g  8.5,4.0
# From MPEC 2026-HH0
C/2023 H3 (PANSTARRS),e,2.4883,55.0742,193.2344,13.61782,0.0196129,0.61596826,16.9649,07/02.0/2026,2000,g 10.0,4.0
# From MPEC 2026-M30
C/2023 H5 (Lemmon),h,06/30.4695/2025,97.8552,159.4712,60.1276,1.000683,4.313039,2000,7.0,4.0
# From MPC194184
P/2023 JN16 (Lemmon),e,3.7029,11.7542,353.5100,2.697416,0.2224755,0.14806875,121.7202,07/02.0/2026,2000,g 14.0,4.0
# From MPC194184
P/2023 M1 (PANSTARRS),e,12.2928,216.8663,79.6752,6.836726,0.0551356,0.58659500,51.3306,07/02.0/2026,2000,g 13.5,4.0
# From MPC194185
P/2023 M2 (PANSTARRS),e,19.7099,83.2570,243.7753,5.589275,0.0745883,0.36888027,79.8243,07/02.0/2026,2000,g 12.5,4.0
# From MPC194185
P/2023 M4 (ATLAS),e,7.5921,296.2648,320.3536,5.441471,0.0776479,0.27925101,119.6747,07/02.0/2026,2000,g  7.5,4.0
# From MPC194185
C/2023 P1 (Nishimura),e,132.4870,66.7569,116.1652,55.79198,0.0023651,0.99599049,0.0000,09/17.4507/2023,2000,g 10.0,4.0
# From MPC194185
C/2023 Q1 (PANSTARRS),h,12/01.0644/2024,36.6417,7.1242,84.4298,1.004685,2.576615,2000,10.0,4.0
# From MPC194185
C/2023 Q2 (PANSTARRS),e,104.0613,92.6744,171.6440,325.3491,0.0001679,0.99014128,0.0000,06/23.7436/2024,2000,g 11.5,4.0
# From MPEC 2026-M30
C/2023 R1 (PANSTARRS),h,04/13.3687/2026,149.3138,62.5708,144.2586,1.002299,3.570089,2000,6.0,4.0
# From MPC194185
C/2023 R2 (PANSTARRS),h,08/12.2492/2024,30.6995,188.8498,337.3552,1.000404,0.904859,2000,10.5,4.0
# From MPC194185
C/2023 RN3 (ATLAS),e,10.3521,207.0672,130.6088,10.15608,0.0304519,0.48965265,38.3455,07/02.0/2026,2000,g  7.5,4.0
# From MPEC 2026-L50
C/2023 RS61 (PANSTARRS),e,19.9470,347.0372,119.5710,11.89240,0.0240325,0.32790450,338.6985,07/02.0/2026,2000,g  6.8,4.0
# From MPEC 2026-K60
P/2023 S1 (PANSTARRS),e,9.1575,317.2858,180.3798,3.845375,0.1307061,0.31852614,64.3845,07/02.0/2026,2000,g 11.5,4.0
# From MPC194186
P/2023 T1 (PANSTARRS),e,6.6117,249.5815,202.9259,4.227125,0.1134061,0.33301721,87.3283,07/02.0/2026,2000,g 14.0,4.0
# From MPEC 2026-M30
C/2023 T3 (Fuls),e,27.2160,246.0007,302.8629,1018,0.0000303,0.99651556,0.0000,01/25.4823/2025,2000,g  8.5,4.0
# From MPEC 2026-HH0
C/2023 TD22 (Lemmon),e,170.4873,5.5835,32.5256,48.25826,0.0029400,0.95119493,1.9219,07/02.0/2026,2000,g 12.5,4.0
# From MPC191587
C/2023 U1 (Fuls),e,108.1478,305.7999,255.6754,4950,0.0000028,0.99899520,0.0000,10/13.2669/2024,2000,g  8.0,4.0
# From MPEC 2026-M30
C/2023 V1 (Lemmon),h,07/13.0704/2025,102.0060,15.0548,103.3229,1.000262,5.092728,2000,8.5,4.0
# From MPC194186
P/2023 V2 (PANSTARRS),e,9.8883,95.4732,330.5113,7.214143,0.0508659,0.56956462,44.7452,07/02.0/2026,2000,g 13.5,4.0
# From MPC194186
C/2023 V3 (PANSTARRS),e,40.6209,91.2611,291.8126,12.68150,0.0218247,0.64527783,23.2751,07/02.0/2026,2000,g 11.5,4.0
# From MPC194186
C/2023 V4 (Camarasa-Duszanowicz),h,05/30.4640/2024,67.0954,66.3250,50.8889,1.001326,1.122262,2000,12.0,4.0
# From MPC194187
P/2023 V6 (PANSTARRS),e,3.9865,189.3390,191.1648,5.268642,0.0814997,0.17558489,107.6982,07/02.0/2026,2000,g 11.5,4.0
# From MPC194187
C/2023 X1 (Leonard),e,110.5951,136.9603,321.4998,155.6579,0.0005075,0.99387664,0.0000,10/17.7660/2023,2000,g 13.5,3.2
# From MPEC 2026-M30
C/2023 X2 (Lemmon),h,12/28.5441/2025,76.9810,66.3035,64.8095,1.000103,5.088686,2000,8.5,3.2
# From MPC194187
P/2023 X3 (PANSTARRS),e,4.4827,62.0194,40.9611,4.247824,0.1125782,0.28604601,90.1250,07/02.0/2026,2000,g 15.5,4.0
# From MPC194187
C/2023 X4 (Hogan),e,11.5896,28.7693,100.6567,9.934828,0.0314748,0.63156735,24.1608,07/02.0/2026,2000,g 12.0,4.0
# From MPC194187
C/2023 X7 (PANSTARRS),e,69.1276,119.2057,354.3862,3069,0.0000058,0.99842913,0.0000,05/14.8994/2025,2000,g  9.0,4.0
# From MPC194187
P/2023 Y2 (Gibbs),e,6.9912,79.2312,16.9614,3.748893,0.1357843,0.39203497,143.5000,07/02.0/2026,2000,g 15.5,4.0
# From MPEC 2026-L50
C/2024 A1 (ATLAS),e,94.5050,112.1399,353.1948,8146,0.0000013,0.99952442,0.0000,06/12.9309/2025,2000,g  7.0,4.0
# From MPC194187
C/2024 A2 (ATLAS),e,119.1208,78.1763,295.5113,32.13702,0.0054100,0.94147977,4.2976,07/02.0/2026,2000,g 12.5,4.0
# From MPC194188
C/2024 B1 (Lemmon),h,10/07.8012/2024,70.8885,79.1877,66.2316,1.001275,1.633936,2000,13.0,4.0
# From MPC194188
C/2024 B2 (Lemmon),e,99.8735,294.3884,130.3213,1161,0.0000249,0.99648576,0.0000,10/05.2096/2023,2000,g 11.5,4.0
# From MPC194188
C/2024 C1 (PANSTARRS),e,14.2251,83.8125,94.5292,10.60123,0.0285542,0.58368130,19.1174,07/02.0/2026,2000,g 11.5,4.0
# From MPC194188
C/2024 C2 (PANSTARRS),e,27.2832,66.4590,87.6609,16.25601,0.0150378,0.44682484,7.1498,07/02.0/2026,2000,g  6.0,4.0
# From MPC194188
C/2024 C3 (PANSTARRS),e,22.4463,359.6941,159.7989,11.68681,0.0246695,0.42541848,23.7978,07/02.0/2026,2000,g  9.0,4.0
# From MPEC 2026-L50
C/2024 D1 (Lemmon),e,132.4480,179.6519,125.8095,61287,0.0000001,0.99989083,0.0000,12/03.6775/2027,2000,g  7.3,4.0
# From MPEC 2026-J11
C/2024 E1 (Wierzchos),h,01/20.7806/2026,75.2347,108.0794,243.6269,1.000297,0.566111,2000,7.0,4.0
# From MPC194188
C/2024 E2 (Bok),e,155.6527,135.6597,358.2250,51.06778,0.0027007,0.84921713,2.6470,07/02.0/2026,2000,g  8.0,4.0
# From MPC194188
P/2024 F1 (PANSTARRS),e,7.0061,251.5126,229.6124,3.446545,0.1540381,0.46019931,150.9732,07/02.0/2026,2000,g 16.0,4.0
# From MPC194189
C/2024 F2 (PANSTARRS),e,13.7450,138.9392,112.8617,9.946245,0.0314207,0.60121074,22.0919,07/02.0/2026,2000,g 11.0,4.0
# From MPC194189
P/2024 FG9 (Nanshan-Hahn),e,1.7307,253.0302,245.9702,3.258312,0.1675772,0.51001515,129.4412,07/02.0/2026,2000,g 14.0,4.0
# From MPC194189
C/2024 G1 (Wierzchos),e,95.3770,30.6020,128.2201,121.7293,0.0007339,0.96771421,0.4542,07/02.0/2026,2000,g 10.0,4.0
# From MPEC 2026-KB8
C/2024 G2 (ATLAS),e,122.1213,171.3993,328.7676,689.6202,0.0000544,0.99224362,0.0000,06/13.7490/2025,2000,g  7.0,4.0
# From MPC194189
C/2024 G3 (ATLAS),h,01/13.4285/2025,116.8403,220.4668,108.1936,1.000009,0.093679,2000,9.0,4.0
# From MPEC 2026-M30
C/2024 G4 (PANSTARRS),e,33.0296,152.9706,131.4045,3860,0.0000041,0.99873046,0.0000,03/21.4208/2026,2000,g  8.0,4.0
# From MPC194189
C/2024 G5 (Leonard),e,50.3898,316.3823,209.6183,634.2418,0.0000617,0.99534257,0.0000,09/07.2098/2024,2000,g 13.0,4.0
# From MPEC 2026-M30
C/2024 G6 (ATLAS),h,02/20.5386/2026,120.4467,250.9479,23.4186,1.001377,6.429980,2000,5.5,4.0
# From MPC194189
C/2024 G7 (ATLAS),h,02/09.8659/2025,131.5044,191.9761,289.6473,1.001339,6.027290,2000,7.0,4.0
# From MPC194189
